GSAT0216 (GALILEO 20)   
1 43056U 17079B   26185.31754973  .00000074  00000+0  00000+0 0  9992
2 43056  55.0701 221.0351 0004785 276.4943  83.5267  1.70474618 53299
GSAT0217 (GALILEO 21)   
1 43057U 17079C   26186.12492864  .00000075  00000+0  00000+0 0  9992
2 43057  55.0683 221.0105 0003472 295.4550  64.5817  1.70474294 53293
GSAT0218 (GALILEO 22)   
1 43058U 17079D   26183.99869529  .00000074  00000+0  00000+0 0  9990
2 43058  55.0684 221.0667 0006020 274.6008  85.4124  1.70474450 53283
BEIDOU-3 M7             
1 43107U 18003A   26186.60719869 -.00000060  00000+0  00000+0 0  9991
2 43107  54.3105 301.6729 0004493  97.1448 262.9309  1.86228521 57699
BEIDOU-3 M8             
1 43108U 18003B   26185.47778759 -.00000059  00000+0  00000+0 0  9997
2 43108  54.3039 301.6942 0002946 257.9178 102.0730  1.86231098 57684
BEIDOU-3 M4             
1 43207U 18018A   26181.08829659 -.00000050  00000+0  00000+0 0  9993
2 43207  56.6620  62.7232 0007448  23.9137 336.1827  1.86231543 56984
BEIDOU-3 M3             
1 43208U 18018B   26185.98738978 -.00000037  00000+0  00000+0 0  9995
2 43208  56.6656  62.5664 0007916 344.1639  15.8794  1.86231281 57070
BEIDOU-3 M9             
1 43245U 18029A   26186.20531904 -.00000058  00000+0  00000+0 0  9997
2 43245  54.1766 299.3192 0001017 177.5903 182.4380  1.86228518 56238
BEIDOU-3 M10            
1 43246U 18029B   26186.13958315 -.00000057  00000+0  00000+0 0  9998
2 43246  54.1743 299.3474 0003318  34.9189 325.1304  1.86229624 56214
IRNSS-1I                
1 43286U 18035A   26185.98696017  .00000082  00000+0  00000+0 0  9996
2 43286  28.7931  73.9207 0017781 182.3699  77.0399  1.00278933 30253
COSMOS 2527 [GLONASS-M] 
1 43508U 18053A   26186.38592319 -.00000011  00000+0  00000+0 0  9991
2 43508  65.5873  73.3006 0006720 233.2746 126.7299  2.13102373 62665
BEIDOU-2 IGSO-7         
1 43539U 18057A   26182.89122331 -.00000033  00000+0  00000+0 0  9998
2 43539  55.1981 162.9292 0104946 237.8611 308.6338  1.00246939 29273
GSAT0221 (GALILEO 25)   
1 43564U 18060A   26184.48931205 -.00000075  00000+0  00000+0 0  9991
2 43564  57.1640 341.3408 0002544 292.9335  67.0341  1.70476235 49445
GSAT0222 (GALILEO 26)   
1 43565U 18060B   26185.88216625 -.00000072  00000+0  00000+0 0  9996
2 43565  57.1670 341.3069 0002471 237.6197 122.3538  1.70475916 49519
GSAT0219 (GALILEO 23)   
1 43566U 18060C   26183.17010913 -.00000079  00000+0  00000+0 0  9996
2 43566  57.1675 341.3816 0001774 308.8571  51.1194  1.70476198 49449
GSAT0220 (GALILEO 24)   
1 43567U 18060D   26185.15085819 -.00000073  00000+0  00000+0 0  9998
2 43567  57.1659 341.3289 0001981 299.0987  60.8773  1.70476136 49462
BEIDOU-3 M5             
1 43581U 18062A   26186.36353622  .00000102  00000+0  00000+0 0  9992
2 43581  54.0864 181.6860 0005685 290.7318  69.2090  1.86228842 53975
BEIDOU-3 M6             
1 43582U 18062B   26185.69013536  .00000095  00000+0  00000+0 0  9996
2 43582  54.0862 181.6984 0005134   9.5945 350.4158  1.86227898 53961
BEIDOU-3 M12            
1 43602U 18067A   26186.16551804  .00000100  00000+0  00000+0 0  9999
2 43602  54.1815 180.4305 0007886  30.0033 330.0410  1.86227846 53452
BEIDOU-3 M11            
1 43603U 18067B   26186.30063315  .00000102  00000+0  00000+0 0  9993
2 43603  54.1789 180.3895 0004607  13.2303 346.7812  1.86227307 53482
BEIDOU-3 M13            
1 43622U 18072A   26186.25540581 -.00000038  00000+0  00000+0 0  9998
2 43622  56.6401  62.0636 0006505 332.1156  27.9172  1.86231609 52990
BEIDOU-3 M14            
1 43623U 18072B   26186.12083347 -.00000037  00000+0  00000+0 0  9996
2 43623  56.6418  62.0624 0005648   6.3470 353.7281  1.86231617 52981
BEIDOU-3 M16            
1 43647U 18078A   26186.27591436 -.00000058  00000+0  00000+0 0  9990
2 43647  54.0723 299.3519 0006797  40.3103 319.7677  1.86232297 52495
BEIDOU-3 M15            
1 43648U 18078B   26186.40518660 -.00000058  00000+0  00000+0 0  9994
2 43648  54.0678 299.3477 0003902  59.0227 301.0433  1.86232465 52511
COSMOS 2529 [GLONASS-M] 
1 43687U 18086A   26186.48222325  .00000104  00000+0  00000+0 0  9995
2 43687  64.2964 191.9765 0012124 256.2927 103.5996  2.13102138 59673
BEIDOU-3 M17            
1 43706U 18093A   26185.22286402  .00000091  00000+0  00000+0 0  9997
2 43706  54.1701 181.7185 0010151 293.0453 245.7693  1.86228469 51856
BEIDOU-3 M18            
1 43707U 18093B   26186.43047008  .00000103  00000+0  00000+0 0  9993
2 43707  54.1708 181.6695 0008086 321.5987  38.3455  1.86226766 51874
NAVSTAR 77 (USA 289)    
1 43873U 18109A   26184.73524920 -.00000005  00000+0  00000+0 0  9991
2 43873  55.6910  91.5344 0038559 197.4684 354.7406  2.00562540 55405
BEIDOU-3 IGSO-1         
1 44204U 19023A   26183.86157338 -.00000197  00000+0  00000+0 0  9996
2 44204  58.7163  37.4891 0025641 224.0382  88.2901  1.00287534  7361
BEIDOU-2 G8             
1 44231U 19027A   26186.63809832 -.00000234  00000+0  00000+0 0  9993
2 44231   1.7022  74.5151 0010063 285.6478 297.6492  1.00275677 26261
